ONEWEB-0255             
1 48973U 21060G   25211.72903332 -.00000028  00000+0 -10690-3 0  9990
2 48973  87.9043 292.8693 0002065  90.5744 269.5623 13.16595492197369
ONEWEB-0256             
1 48974U 21060H   25211.75514569  .00000069  00000+0  14571-3 0  9999
2 48974  87.9042 292.8750 0002076 101.5506 258.5858 13.16596027197334
ONEWEB-0257             
1 48975U 21060J   25211.78761207 -.00000023  00000+0 -94374-4 0  9998
2 48975  87.9047 292.8348 0002173  94.1860 265.9519 13.16596011197295
ONEWEB-0258             
1 48976U 21060K   25211.71320309 -.00000066  00000+0 -20562-3 0  9990
2 48976  87.9044 292.8747 0001916  97.4101 262.7247 13.16593113197297
ONEWEB-0259             
1 48977U 21060L   25211.93485569  .00000064  00000+0  13279-3 0  9998
2 48977  87.9047 292.8150 0001999  93.6863 266.4496 13.16595963197352
ONEWEB-0260             
1 48978U 21060M   25211.92613983  .00000059  00000+0  12024-3 0  9992
2 48978  87.9042 292.8425 0002469 104.5443 255.5961 13.16596763197335
ONEWEB-0261             
1 48979U 21060N   25211.74407563  .00000114  00000+0  26337-3 0  9992
2 48979  87.9042 292.8801 0002376  91.5503 268.5900 13.16593910197364
ONEWEB-0262             
1 48980U 21060P   25211.72429470 -.00000044  00000+0 -14968-3 0  9994
2 48980  87.9047 292.8460 0001883  88.8777 271.2569 13.16593310197328
ONEWEB-0263             
1 48981U 21060Q   25211.75596451  .00000050  00000+0  98380-4 0  9998
2 48981  87.9044 292.8636 0002226  86.9859 273.1527 13.16594085197294
ONEWEB-0264             
1 48982U 21060R   25211.71715032 -.00000229  00000+0 -63137-3 0  9994
2 48982  87.9042 292.8764 0002069  95.8169 264.3198 13.16593723197297
ONEWEB-0266             
1 48984U 21060T   25211.73853581 -.00000040  00000+0 -13717-3 0  9990
2 48984  87.9048 292.8472 0001813  97.3054 262.8283 13.16592740197282
ONEWEB-0267             
1 48985U 21060U   25211.74961827  .00000069  00000+0  14725-3 0  9994
2 48985  87.9048 292.8474 0002212  93.3011 266.8373 13.16593672197298
ONEWEB-0268             
1 48986U 21060V   25211.71795115 -.00000047  00000+0 -15689-3 0  9995
2 48986  87.9049 292.8596 0002145  99.7645 260.3729 13.16596440197552
ONEWEB-0269             
1 48987U 21060W   25211.92693634  .00000068  00000+0  14324-3 0  9998
2 48987  87.9042 292.8505 0001980 100.2871 259.8483 13.16596924197356
ONEWEB-0270             
1 48988U 21060X   25211.71636299 -.00000042  00000+0 -14286-3 0  9991
2 48988  87.9045 292.8625 0002185  86.2268 273.9113 13.16595930197368
ONEWEB-0271             
1 48989U 21060Y   25211.93169355  .00000020  00000+0  18358-4 0  9999
2 48989  87.9049 292.8028 0002204  92.6896 267.4488 13.16593800197390
ONEWEB-0272             
1 48990U 21060Z   25211.72587226 -.00000054  00000+0 -17515-3 0  9991
2 48990  87.9045 292.8738 0002296  96.6337 263.5055 13.16599051197314
