[{"OBJECT_NAME":"ONEWEB-0255","OBJECT_ID":"2021-060G","EPOCH":"2025-07-30T17:29:48.478848","MEAN_MOTION":13.16595492,"ECCENTRICITY":0.0002065,"INCLINATION":87.9043,"RA_OF_ASC_NODE":292.8693,"ARG_OF_PERICENTER":90.5744,"MEAN_ANOMALY":269.5623,"EPHEMERIS_TYPE":0,"CLASSIFICATION_TYPE":"U","NORAD_CAT_ID":48973,"ELEMENT_SET_NO":999,"REV_AT_EPOCH":19736,"BSTAR":-0.0001069,"MEAN_MOTION_DOT":-2.8e-7,"MEAN_MOTION_DDOT":0},{"OBJECT_NAME":"ONEWEB-0256","OBJECT_ID":"2021-060H","EPOCH":"2025-07-30T18:07:24.587616","MEAN_MOTION":13.16596027,"ECCENTRICITY":0.0002076,"INCLINATION":87.9042,"RA_OF_ASC_NODE":292.875,"ARG_OF_PERICENTER":101.5506,"MEAN_ANOMALY":258.5858,"EPHEMERIS_TYPE":0,"CLASSIFICATION_TYPE":"U","NORAD_CAT_ID":48974,"ELEMENT_SET_NO":999,"REV_AT_EPOCH":19733,"BSTAR":0.00014571,"MEAN_MOTION_DOT":6.9e-7,"MEAN_MOTION_DDOT":0},{"OBJECT_NAME":"ONEWEB-0257","OBJECT_ID":"2021-060J","EPOCH":"2025-07-30T18:54:09.682848","MEAN_MOTION":13.16596011,"ECCENTRICITY":0.0002173,"INCLINATION":87.9047,"RA_OF_ASC_NODE":292.8348,"ARG_OF_PERICENTER":94.186,"MEAN_ANOMALY":265.9519,"EPHEMERIS_TYPE":0,"CLASSIFICATION_TYPE":"U","NORAD_CAT_ID":48975,"ELEMENT_SET_NO":999,"REV_AT_EPOCH":19729,"BSTAR":-9.4374e-5,"MEAN_MOTION_DOT":-2.3e-7,"MEAN_MOTION_DDOT":0},{"OBJECT_NAME":"ONEWEB-0258","OBJECT_ID":"2021-060K","EPOCH":"2025-07-30T17:07:00.746976","MEAN_MOTION":13.16593113,"ECCENTRICITY":0.0001916,"INCLINATION":87.9044,"RA_OF_ASC_NODE":292.8747,"ARG_OF_PERICENTER":97.4101,"MEAN_ANOMALY":262.7247,"EPHEMERIS_TYPE":0,"CLASSIFICATION_TYPE":"U","NORAD_CAT_ID":48976,"ELEMENT_SET_NO":999,"REV_AT_EPOCH":19729,"BSTAR":-0.00020562,"MEAN_MOTION_DOT":-6.6e-7,"MEAN_MOTION_DDOT":0},{"OBJECT_NAME":"ONEWEB-0259","OBJECT_ID":"2021-060L","EPOCH":"2025-07-30T22:26:11.531616","MEAN_MOTION":13.16595963,"ECCENTRICITY":0.0001999,"INCLINATION":87.9047,"RA_OF_ASC_NODE":292.815,"ARG_OF_PERICENTER":93.6863,"MEAN_ANOMALY":266.4496,"EPHEMERIS_TYPE":0,"CLASSIFICATION_TYPE":"U","NORAD_CAT_ID":48977,"ELEMENT_SET_NO":999,"REV_AT_EPOCH":19735,"BSTAR":0.00013279,"MEAN_MOTION_DOT":6.4e-7,"MEAN_MOTION_DDOT":0},{"OBJECT_NAME":"ONEWEB-0260","OBJECT_ID":"2021-060M","EPOCH":"2025-07-30T22:13:38.481312","MEAN_MOTION":13.16596763,"ECCENTRICITY":0.0002469,"INCLINATION":87.9042,"RA_OF_ASC_NODE":292.8425,"ARG_OF_PERICENTER":104.5443,"MEAN_ANOMALY":255.5961,"EPHEMERIS_TYPE":0,"CLASSIFICATION_TYPE":"U","NORAD_CAT_ID":48978,"ELEMENT_SET_NO":999,"REV_AT_EPOCH":19733,"BSTAR":0.00012024,"MEAN_MOTION_DOT":5.9e-7,"MEAN_MOTION_DDOT":0},{"OBJECT_NAME":"ONEWEB-0261","OBJECT_ID":"2021-060N","EPOCH":"2025-07-30T17:51:28.134432","MEAN_MOTION":13.1659391,"ECCENTRICITY":0.0002376,"INCLINATION":87.9042,"RA_OF_ASC_NODE":292.8801,"ARG_OF_PERICENTER":91.5503,"MEAN_ANOMALY":268.59,"EPHEMERIS_TYPE":0,"CLASSIFICATION_TYPE":"U","NORAD_CAT_ID":48979,"ELEMENT_SET_NO":999,"REV_AT_EPOCH":19736,"BSTAR":0.00026337,"MEAN_MOTION_DOT":1.14e-6,"MEAN_MOTION_DDOT":0},{"OBJECT_NAME":"ONEWEB-0262","OBJECT_ID":"2021-060P","EPOCH":"2025-07-30T17:22:59.062080","MEAN_MOTION":13.1659331,"ECCENTRICITY":0.0001883,"INCLINATION":87.9047,"RA_OF_ASC_NODE":292.846,"ARG_OF_PERICENTER":88.8777,"MEAN_ANOMALY":271.2569,"EPHEMERIS_TYPE":0,"CLASSIFICATION_TYPE":"U","NORAD_CAT_ID":48980,"ELEMENT_SET_NO":999,"REV_AT_EPOCH":19732,"BSTAR":-0.00014968,"MEAN_MOTION_DOT":-4.4e-7,"MEAN_MOTION_DDOT":0},{"OBJECT_NAME":"ONEWEB-0263","OBJECT_ID":"2021-060Q","EPOCH":"2025-07-30T18:08:35.333664","MEAN_MOTION":13.16594085,"ECCENTRICITY":0.0002226,"INCLINATION":87.9044,"RA_OF_ASC_NODE":292.8636,"ARG_OF_PERICENTER":86.9859,"MEAN_ANOMALY":273.1527,"EPHEMERIS_TYPE":0,"CLASSIFICATION_TYPE":"U","NORAD_CAT_ID":48981,"ELEMENT_SET_NO":999,"REV_AT_EPOCH":19729,"BSTAR":9.838e-5,"MEAN_MOTION_DOT":5.0e-7,"MEAN_MOTION_DDOT":0},{"OBJECT_NAME":"ONEWEB-0264","OBJECT_ID":"2021-060R","EPOCH":"2025-07-30T17:12:41.787648","MEAN_MOTION":13.16593723,"ECCENTRICITY":0.0002069,"INCLINATION":87.9042,"RA_OF_ASC_NODE":292.8764,"ARG_OF_PERICENTER":95.8169,"MEAN_ANOMALY":264.3198,"EPHEMERIS_TYPE":0,"CLASSIFICATION_TYPE":"U","NORAD_CAT_ID":48982,"ELEMENT_SET_NO":999,"REV_AT_EPOCH":19729,"BSTAR":-0.00063137,"MEAN_MOTION_DOT":-2.29e-6,"MEAN_MOTION_DDOT":0},{"OBJECT_NAME":"ONEWEB-0266","OBJECT_ID":"2021-060T","EPOCH":"2025-07-30T17:43:29.493984","MEAN_MOTION":13.1659274,"ECCENTRICITY":0.0001813,"INCLINATION":87.9048,"RA_OF_ASC_NODE":292.8472,"ARG_OF_PERICENTER":97.3054,"MEAN_ANOMALY":262.8283,"EPHEMERIS_TYPE":0,"CLASSIFICATION_TYPE":"U","NORAD_CAT_ID":48984,"ELEMENT_SET_NO":999,"REV_AT_EPOCH":19728,"BSTAR":-0.00013717,"MEAN_MOTION_DOT":-4.0e-7,"MEAN_MOTION_DDOT":0},{"OBJECT_NAME":"ONEWEB-0267","OBJECT_ID":"2021-060U","EPOCH":"2025-07-30T17:59:27.018528","MEAN_MOTION":13.16593672,"ECCENTRICITY":0.0002212,"INCLINATION":87.9048,"RA_OF_ASC_NODE":292.8474,"ARG_OF_PERICENTER":93.3011,"MEAN_ANOMALY":266.8373,"EPHEMERIS_TYPE":0,"CLASSIFICATION_TYPE":"U","NORAD_CAT_ID":48985,"ELEMENT_SET_NO":999,"REV_AT_EPOCH":19729,"BSTAR":0.00014725,"MEAN_MOTION_DOT":6.9e-7,"MEAN_MOTION_DDOT":0},{"OBJECT_NAME":"ONEWEB-0268","OBJECT_ID":"2021-060V","EPOCH":"2025-07-30T17:13:50.979360","MEAN_MOTION":13.1659644,"ECCENTRICITY":0.0002145,"INCLINATION":87.9049,"RA_OF_ASC_NODE":292.8596,"ARG_OF_PERICENTER":99.7645,"MEAN_ANOMALY":260.3729,"EPHEMERIS_TYPE":0,"CLASSIFICATION_TYPE":"U","NORAD_CAT_ID":48986,"ELEMENT_SET_NO":999,"REV_AT_EPOCH":19755,"BSTAR":-0.00015689,"MEAN_MOTION_DOT":-4.7e-7,"MEAN_MOTION_DDOT":0},{"OBJECT_NAME":"ONEWEB-0269","OBJECT_ID":"2021-060W","EPOCH":"2025-07-30T22:14:47.299776","MEAN_MOTION":13.16596924,"ECCENTRICITY":0.000198,"INCLINATION":87.9042,"RA_OF_ASC_NODE":292.8505,"ARG_OF_PERICENTER":100.2871,"MEAN_ANOMALY":259.8483,"EPHEMERIS_TYPE":0,"CLASSIFICATION_TYPE":"U","NORAD_CAT_ID":48987,"ELEMENT_SET_NO":999,"REV_AT_EPOCH":19735,"BSTAR":0.00014324,"MEAN_MOTION_DOT":6.8e-7,"MEAN_MOTION_DDOT":0},{"OBJECT_NAME":"ONEWEB-0270","OBJECT_ID":"2021-060X","EPOCH":"2025-07-30T17:11:33.762336","MEAN_MOTION":13.1659593,"ECCENTRICITY":0.0002185,"INCLINATION":87.9045,"RA_OF_ASC_NODE":292.8625,"ARG_OF_PERICENTER":86.2268,"MEAN_ANOMALY":273.9113,"EPHEMERIS_TYPE":0,"CLASSIFICATION_TYPE":"U","NORAD_CAT_ID":48988,"ELEMENT_SET_NO":999,"REV_AT_EPOCH":19736,"BSTAR":-0.00014286,"MEAN_MOTION_DOT":-4.2e-7,"MEAN_MOTION_DDOT":0},{"OBJECT_NAME":"ONEWEB-0271","OBJECT_ID":"2021-060Y","EPOCH":"2025-07-30T22:21:38.322720","MEAN_MOTION":13.165938,"ECCENTRICITY":0.0002204,"INCLINATION":87.9049,"RA_OF_ASC_NODE":292.8028,"ARG_OF_PERICENTER":92.6896,"MEAN_ANOMALY":267.4488,"EPHEMERIS_TYPE":0,"CLASSIFICATION_TYPE":"U","NORAD_CAT_ID":48989,"ELEMENT_SET_NO":999,"REV_AT_EPOCH":19739,"BSTAR":1.8358e-5,"MEAN_MOTION_DOT":2.0e-7,"MEAN_MOTION_DDOT":0},{"OBJECT_NAME":"ONEWEB-0272","OBJECT_ID":"2021-060Z","EPOCH":"2025-07-30T17:25:15.363264","MEAN_MOTION":13.16599051,"ECCENTRICITY":0.0002296,"INCLINATION":87.9045,"RA_OF_ASC_NODE":292.8738,"ARG_OF_PERICENTER":96.6337,"MEAN_ANOMALY":263.5055,"EPHEMERIS_TYPE":0,"CLASSIFICATION_TYPE":"U","NORAD_CAT_ID":48990,"ELEMENT_SET_NO":999,"REV_AT_EPOCH":19731,"BSTAR":-0.00017515,"MEAN_MOTION_DOT":-5.4e-7,"MEAN_MOTION_DDOT":0}]
